start=new Date('2021-12-21T00:00:00.000Z').valueOf();
sats=[{"APOAPSIS":"540.652","EPOCH":"2021-12-20T13:04:28.530624","OBJECT_NAME":"STARLINK-1939","LAUNCH_DATE":"2020-10-24","MEAN_MOTION_DDOT":"0.0000000000000","MEAN_MOTION_DOT":"0.00013073","BSTAR":"0.00084011000000","GP_ID":"192077881","NORAD_CAT_ID":"46774","ELEMENT_SET_NO":"999","OBJECT_ID":"2020-074AM","PERIAPSIS":"539.441","ECCENTRICITY":"0.00008750","RCS_SIZE":"LARGE","RA_OF_ASC_NODE":"48.7127","PERIOD":"95.444","OBJECT_TYPE":"PAYLOAD","TLE_LINE1":"1 46774U 20074AM  21354.54477466  .00013073  00000-0  84011-3 0  9990","ARG_OF_PERICENTER":"75.9825","REF_FRAME":"TEME","CENTER_NAME":"EARTH","TIME_SYSTEM":"UTC","COUNTRY_CODE":"US","TLE_LINE2":"2 46774  53.0536  48.7127 0000875  75.9825 284.1263 15.08741582 64363","MEAN_MOTION":"15.08741582","MEAN_ANOMALY":"284.1263","EPHEMERIS_TYPE":"0","SITE":"AFETR","INCLINATION":"53.0536","MEAN_ELEMENT_THEORY":"SGP4","REV_AT_EPOCH":"6436","SEMIMAJOR_AXIS":"6918.181","CLASSIFICATION_TYPE":"U","DECAY_DATE":null,"FILE":"3245363"},{"COUNTRY_CODE":"US","TLE_LINE2":"2 46775  53.0569  28.8066 0002151  35.8365 324.2799 15.77626058 64652","CENTER_NAME":"EARTH","TIME_SYSTEM":"UTC","MEAN_ANOMALY":"324.2799","MEAN_MOTION":"15.77626058","REV_AT_EPOCH":"6465","INCLINATION":"53.0569","SITE":"AFETR","EPHEMERIS_TYPE":"0","MEAN_ELEMENT_THEORY":"SGP4","DECAY_DATE":null,"FILE":"3245895","SEMIMAJOR_AXIS":"6715.306","CLASSIFICATION_TYPE":"U","LAUNCH_DATE":"2020-10-24","OBJECT_NAME":"STARLINK-1945","EPOCH":"2021-12-20T19:17:22.812864","MEAN_MOTION_DOT":"0.00181646","MEAN_MOTION_DDOT":"0.0000000000000","APOAPSIS":"338.615","ELEMENT_SET_NO":"999","OBJECT_ID":"2020-074AN","ECCENTRICITY":"0.00021510","PERIAPSIS":"335.726","GP_ID":"192113470","NORAD_CAT_ID":"46775","BSTAR":"0.00104760000000","PERIOD":"91.276","RA_OF_ASC_NODE":"28.8066","ARG_OF_PERICENTER":"35.8365","OBJECT_TYPE":"PAYLOAD","TLE_LINE1":"1 46775U 20074AN  21354.80373626  .00181646  00000-0  10476-2 0  9998","RCS_SIZE":"LARGE","REF_FRAME":"TEME"},{"RCS_SIZE":"LARGE","ARG_OF_PERICENTER":"84.8314","TLE_LINE1":"1 46776U 20074AP  21354.65038873  .00001702  00000-0  13314-3 0  9993","OBJECT_TYPE":"PAYLOAD","PERIOD":"95.592","RA_OF_ASC_NODE":"50.1219","REF_FRAME":"TEME","APOAPSIS":"548.107","MEAN_MOTION_DOT":"0.00001702","MEAN_MOTION_DDOT":"0.0000000000000","OBJECT_NAME":"STARLINK-1946","LAUNCH_DATE":"2020-10-24","EPOCH":"2021-12-20T15:36:33.586272","BSTAR":"0.00013314000000","GP_ID":"192112218","NORAD_CAT_ID":"46776","ECCENTRICITY":"0.00013060","PERIAPSIS":"546.298","OBJECT_ID":"2020-074AP","ELEMENT_SET_NO":"999","MEAN_ELEMENT_THEORY":"SGP4","INCLINATION":"53.0547","EPHEMERIS_TYPE":"0","SITE":"AFETR","REV_AT_EPOCH":"6434","CLASSIFICATION_TYPE":"U","SEMIMAJOR_AXIS":"6925.337","FILE":"3245895","DECAY_DATE":null,"TIME_SYSTEM":"UTC","CENTER_NAME":"EARTH","TLE_LINE2":"2 46776  53.0547  50.1219 0001306  84.8314 275.2824 15.06403629 64345","COUNTRY_CODE":"US","MEAN_ANOMALY":"275.2824","MEAN_MOTION":"15.06403629"},{"TLE_LINE2":"2 46779  53.0551  24.4556 0001265  65.7674 294.3447 15.06412161 64717","COUNTRY_CODE":"US","TIME_SYSTEM":"UTC","CENTER_NAME":"EARTH","MEAN_ANOMALY":"294.3447","MEAN_MOTION":"15.06412161","REV_AT_EPOCH":"6471","MEAN_ELEMENT_THEORY":"SGP4","INCLINATION":"53.0551","SITE":"AFETR","EPHEMERIS_TYPE":"0","FILE":"3245895","DECAY_DATE":null,"CLASSIFICATION_TYPE":"U","SEMIMAJOR_AXIS":"6925.311","MEAN_MOTION_DOT":"0.00006124","MEAN_MOTION_DDOT":"0.0000000000000","LAUNCH_DATE":"2020-10-24","OBJECT_NAME":"STARLINK-1798","EPOCH":"2021-12-20T19:09:31.951008","APOAPSIS":"548.052","ECCENTRICITY":"0.00012650","PERIAPSIS":"546.300","OBJECT_ID":"2020-074AS","ELEMENT_SET_NO":"999","GP_ID":"192112468","NORAD_CAT_ID":"46779","BSTAR":"0.00042951000000","ARG_OF_PERICENTER":"65.7674","OBJECT_TYPE":"PAYLOAD","TLE_LINE1":"1 46779U 20074AS  21354.79828647  .00006124  00000-0  42951-3 0  9999","PERIOD":"95.591","RA_OF_ASC_NODE":"24.4556","RCS_SIZE":"LARGE","REF_FRAME":"TEME"},{"ELEMENT_SET_NO":"999","OBJECT_ID":"2020-074AT","PERIAPSIS":"546.131","ECCENTRICITY":"0.00015390","NORAD_CAT_ID":"46780","GP_ID":"192112720","BSTAR":"0.00017417000000","EPOCH":"2021-12-20T18:53:36.066336","OBJECT_NAME":"STARLINK-1832","LAUNCH_DATE":"2020-10-24","MEAN_MOTION_DDOT":"0.0000000000000","MEAN_MOTION_DOT":"0.00002314","APOAPSIS":"548.263","REF_FRAME":"TEME","RA_OF_ASC_NODE":"24.5102","PERIOD":"95.592","TLE_LINE1":"1 46780U 20074AT  21354.78722299  .00002314  00000-0  17417-3 0  9992","OBJECT_TYPE":"PAYLOAD","ARG_OF_PERICENTER":"62.4523","RCS_SIZE":"LARGE","MEAN_ANOMALY":"297.6622","MEAN_MOTION":"15.06405321","COUNTRY_CODE":"US","TLE_LINE2":"2 46780  53.0558  24.5102 0001539  62.4523 297.6622 15.06405321 64716","CENTER_NAME":"EARTH","TIME_SYSTEM":"UTC","DECAY_DATE":null,"FILE":"3245895","SEMIMAJOR_AXIS":"6925.332","CLASSIFICATION_TYPE":"U","REV_AT_EPOCH":"6471","SITE":"AFETR","EPHEMERIS_TYPE":"0","INCLINATION":"53.0558","MEAN_ELEMENT_THEORY":"SGP4"},{"FILE":"3245505","DECAY_DATE":null,"CLASSIFICATION_TYPE":"U","SEMIMAJOR_AXIS":"6925.332","REV_AT_EPOCH":"6428","MEAN_ELEMENT_THEORY":"SGP4","EPHEMERIS_TYPE":"0","SITE":"AFETR","INCLINATION":"53.0552","MEAN_ANOMALY":"286.7461","MEAN_MOTION":"15.06405301","TLE_LINE2":"2 46781  53.0552  35.3296 0001420  73.3683 286.7461 15.06405301 64282","COUNTRY_CODE":"US","TIME_SYSTEM":"UTC","CENTER_NAME":"EARTH","REF_FRAME":"TEME","OBJECT_TYPE":"PAYLOAD","TLE_LINE1":"1 46781U 20074AU  21354.60569141  .00001652  00000-0  12976-3 0  9998","ARG_OF_PERICENTER":"73.3683","RA_OF_ASC_NODE":"35.3296","PERIOD":"95.592","RCS_SIZE":"LARGE","PERIAPSIS":"546.214","ECCENTRICITY":"0.00014200","ELEMENT_SET_NO":"999","OBJECT_ID":"2020-074AU","BSTAR":"0.00012976000000","GP_ID":"192081800","NORAD_CAT_ID":"46781","MEAN_MOTION_DDOT":"0.0000000000000","MEAN_MOTION_DOT":"0.00001652","EPOCH":"2021-12-20T14:32:11.737824","LAUNCH_DATE":"2020-10-24","OBJECT_NAME":"STARLINK-1834","APOAPSIS":"548.181"},{"MEAN_MOTION":"15.06409924","MEAN_ANOMALY":"296.7216","TIME_SYSTEM":"UTC","CENTER_NAME":"EARTH","TLE_LINE2":"2 46782  53.0528  26.0450 0001265  63.3903 296.7216 15.06409924 64662","COUNTRY_CODE":"US","CLASSIFICATION_TYPE":"U","SEMIMAJOR_AXIS":"6925.318","FILE":"3245363","DECAY_DATE":null,"MEAN_ELEMENT_THEORY":"SGP4","INCLINATION":"53.0528","SITE":"AFETR","EPHEMERIS_TYPE":"0","REV_AT_EPOCH":"6466","GP_ID":"192077381","NORAD_CAT_ID":"46782","BSTAR":"0.00021799000000","ECCENTRICITY":"0.00012650","PERIAPSIS":"546.307","OBJECT_ID":"2020-074AV","ELEMENT_SET_NO":"999","APOAPSIS":"548.059","MEAN_MOTION_DOT":"0.00002968","MEAN_MOTION_DDOT":"0.0000000000000","OBJECT_NAME":"STARLINK-1835","LAUNCH_DATE":"2020-10-24","EPOCH":"2021-12-20T10:39:58.786560","REF_FRAME":"TEME","RCS_SIZE":"LARGE","ARG_OF_PERICENTER":"63.3903","OBJECT_TYPE":"PAYLOAD","TLE_LINE1":"1 46782U 20074AV  21354.44443040  .00002968  00000-0  21799-3 0  9994","PERIOD":"95.592","RA_OF_ASC_NODE":"26.0450"},{"RCS_SIZE":"LARGE","ARG_OF_PERICENTER":"65.6851","TLE_LINE1":"1 46783U 20074AW  21354.79090456  .00002518  00000-0  18779-3 0  9997","OBJECT_TYPE":"PAYLOAD","PERIOD":"95.591","RA_OF_ASC_NODE":"24.4990","REF_FRAME":"TEME","APOAPSIS":"548.227","MEAN_MOTION_DOT":"0.00002518","MEAN_MOTION_DDOT":"0.0000000000000","LAUNCH_DATE":"2020-10-24","OBJECT_NAME":"STARLINK-1851","EPOCH":"2021-12-20T18:58:54.153984","GP_ID":"192111969","BSTAR":"0.00018779000000","NORAD_CAT_ID":"46783","ECCENTRICITY":"0.00015270","PERIAPSIS":"546.112","ELEMENT_SET_NO":"999","OBJECT_ID":"2020-074AW","MEAN_ELEMENT_THEORY":"SGP4","INCLINATION":"53.0560","SITE":"AFETR","EPHEMERIS_TYPE":"0","REV_AT_EPOCH":"6471","CLASSIFICATION_TYPE":"U","SEMIMAJOR_AXIS":"6925.304","FILE":"3245895","DECAY_DATE":null,"TIME_SYSTEM":"UTC","CENTER_NAME":"EARTH","TLE_LINE2":"2 46783  53.0560  24.4990 0001527  65.6851 294.4297 15.06414434 64710","COUNTRY_CODE":"US","MEAN_MOTION":"15.06414434","MEAN_ANOMALY":"294.4297"},{"PERIAPSIS":"546.208","ECCENTRICITY":"0.00014380","ELEMENT_SET_NO":"999","OBJECT_ID":"2020-074AX","NORAD_CAT_ID":"46784","GP_ID":"192113220","BSTAR":"0.00005916000000","MEAN_MOTION_DDOT":"0.0000000000000","MEAN_MOTION_DOT":"0.00000600","EPOCH":"2021-12-20T19:04:13.489248","OBJECT_NAME":"STARLINK-1882","LAUNCH_DATE":"2020-10-24","APOAPSIS":"548.200","REF_FRAME":"TEME","OBJECT_TYPE":"PAYLOAD","TLE_LINE1":"1 46784U 20074AX  21354.79460057  .00000600  00000-0  59160-4 0  9996","ARG_OF_PERICENTER":"66.0669","RA_OF_ASC_NODE":"24.4695","PERIOD":"95.592","RCS_SIZE":"LARGE","MEAN_MOTION":"15.06403144","MEAN_ANOMALY":"294.0471","TLE_LINE2":"2 46784  53.0580  24.4695 0001438  66.0669 294.0471 15.06403144 64714","COUNTRY_CODE":"US","TIME_SYSTEM":"UTC","CENTER_NAME":"EARTH","FILE":"3245895","DECAY_DATE":null,"CLASSIFICATION_TYPE":"U","SEMIMAJOR_AXIS":"6925.339","REV_AT_EPOCH":"6471","MEAN_ELEMENT_THEORY":"SGP4","SITE":"AFETR","EPHEMERIS_TYPE":"0","INCLINATION":"53.0580"},{"REV_AT_EPOCH":"6471","EPHEMERIS_TYPE":"0","SITE":"AFETR","INCLINATION":"53.0542","MEAN_ELEMENT_THEORY":"SGP4","DECAY_DATE":null,"FILE":"3245895","SEMIMAJOR_AXIS":"6925.316","CLASSIFICATION_TYPE":"U","COUNTRY_CODE":"US","TLE_LINE2":"2 46785  53.0542  24.5549 0002691  47.5112 312.6104 15.06410611 64718","CENTER_NAME":"EARTH","TIME_SYSTEM":"UTC","MEAN_ANOMALY":"312.6104","MEAN_MOTION":"15.06410611","RA_OF_ASC_NODE":"24.5549","PERIOD":"95.591","OBJECT_TYPE":"PAYLOAD","TLE_LINE1":"1 46785U 20074AY  21354.77984740  .00002301  00000-0  17327-3 0  9993","ARG_OF_PERICENTER":"47.5112","RCS_SIZE":"LARGE","REF_FRAME":"TEME","EPOCH":"2021-12-20T18:42:58.815360","LAUNCH_DATE":"2020-10-24","OBJECT_NAME":"STARLINK-1883","MEAN_MOTION_DDOT":"0.0000000000000","MEAN_MOTION_DOT":"0.00002301","APOAPSIS":"549.045","OBJECT_ID":"2020-074AY","ELEMENT_SET_NO":"999","PERIAPSIS":"545.317","ECCENTRICITY":"0.00026910","NORAD_CAT_ID":"46785","GP_ID":"192113471","BSTAR":"0.00017327000000"}];
